[Satellite]
VERSION=1.1
NAME=IRIDIUM 82
NICKNAME=IRIDIUM 82
TLE1=1 25467U 98051A   22342.32415805  .00006153  00000+0  41343-3 0  9990
TLE2=2 25467  86.3995 185.5686 0167276  84.1785 277.8486 14.95720211284881
STATUS=2
